ORCASAT                 
1 55126U 98067UT  23116.85392781  .00128281  00000+0  93086-3 0  9995
2 55126  51.6351 214.5118 0009678 322.8407  37.1921 15.72430122 18559
TJREVERB                
1 55128U 98067UV  23116.99081357  .00228245  00000+0  12339-2 0  9998
2 55128  51.6298 212.3954 0012251 325.0772  34.9424 15.78799944 18588
SPORT                   
1 55129U 98067UW  23116.30281592  .00051200  00000+0  56580-3 0  9999
2 55129  51.6357 220.5877 0006170 303.3746  56.6658 15.62502773 18410
SS-1                    
1 55181U 98067UY  23117.35075815  .00623194  16990-3  16420-2 0  9996
2 55181  51.6259 208.0031 0013836 332.5262  27.5012 15.94009828 17380
HSKSAT                  
1 55182U 98067UZ  23117.46507429  .00135533  00000+0  99501-3 0  9998
2 55182  51.6332 211.8259 0008290 308.7073  51.3183 15.72145444 17352
OPTIMAL-1               
1 55183U 98067VA  23117.35451754  .00092608  00000+0  87167-3 0  9996
2 55183  51.6377 214.1208 0009433 317.9386  42.0884 15.66282513 17314
