[{"OBJECT_NAME":"ORCASAT","OBJECT_ID":"1998-067UT","EPOCH":"2023-04-26T20:29:39.362784","MEAN_MOTION":15.72430122,"ECCENTRICITY":0.0009678,"INCLINATION":51.6351,"RA_OF_ASC_NODE":214.5118,"ARG_OF_PERICENTER":322.8407,"MEAN_ANOMALY":37.1921,"EPHEMERIS_TYPE":0,"CLASSIFICATION_TYPE":"U","NORAD_CAT_ID":55126,"ELEMENT_SET_NO":999,"REV_AT_EPOCH":1855,"BSTAR":0.00093086,"MEAN_MOTION_DOT":0.00128281,"MEAN_MOTION_DDOT":0},{"OBJECT_NAME":"TJREVERB","OBJECT_ID":"1998-067UV","EPOCH":"2023-04-26T23:46:46.292448","MEAN_MOTION":15.78799944,"ECCENTRICITY":0.0012251,"INCLINATION":51.6298,"RA_OF_ASC_NODE":212.3954,"ARG_OF_PERICENTER":325.0772,"MEAN_ANOMALY":34.9424,"EPHEMERIS_TYPE":0,"CLASSIFICATION_TYPE":"U","NORAD_CAT_ID":55128,"ELEMENT_SET_NO":999,"REV_AT_EPOCH":1858,"BSTAR":0.0012339,"MEAN_MOTION_DOT":0.00228245,"MEAN_MOTION_DDOT":0},{"OBJECT_NAME":"SPORT","OBJECT_ID":"1998-067UW","EPOCH":"2023-04-26T07:16:03.295488","MEAN_MOTION":15.62502773,"ECCENTRICITY":0.000617,"INCLINATION":51.6357,"RA_OF_ASC_NODE":220.5877,"ARG_OF_PERICENTER":303.3746,"MEAN_ANOMALY":56.6658,"EPHEMERIS_TYPE":0,"CLASSIFICATION_TYPE":"U","NORAD_CAT_ID":55129,"ELEMENT_SET_NO":999,"REV_AT_EPOCH":1841,"BSTAR":0.0005658,"MEAN_MOTION_DOT":0.000512,"MEAN_MOTION_DDOT":0},{"OBJECT_NAME":"SS-1","OBJECT_ID":"1998-067UY","EPOCH":"2023-04-27T08:25:05.504160","MEAN_MOTION":15.94009828,"ECCENTRICITY":0.0013836,"INCLINATION":51.6259,"RA_OF_ASC_NODE":208.0031,"ARG_OF_PERICENTER":332.5262,"MEAN_ANOMALY":27.5012,"EPHEMERIS_TYPE":0,"CLASSIFICATION_TYPE":"U","NORAD_CAT_ID":55181,"ELEMENT_SET_NO":999,"REV_AT_EPOCH":1738,"BSTAR":0.001642,"MEAN_MOTION_DOT":0.00623194,"MEAN_MOTION_DDOT":0.0001699},{"OBJECT_NAME":"HSKSAT","OBJECT_ID":"1998-067UZ","EPOCH":"2023-04-27T11:09:42.418656","MEAN_MOTION":15.72145444,"ECCENTRICITY":0.000829,"INCLINATION":51.6332,"RA_OF_ASC_NODE":211.8259,"ARG_OF_PERICENTER":308.7073,"MEAN_ANOMALY":51.3183,"EPHEMERIS_TYPE":0,"CLASSIFICATION_TYPE":"U","NORAD_CAT_ID":55182,"ELEMENT_SET_NO":999,"REV_AT_EPOCH":1735,"BSTAR":0.00099501,"MEAN_MOTION_DOT":0.00135533,"MEAN_MOTION_DDOT":0},{"OBJECT_NAME":"OPTIMAL-1","OBJECT_ID":"1998-067VA","EPOCH":"2023-04-27T08:30:30.315456","MEAN_MOTION":15.66282513,"ECCENTRICITY":0.0009433,"INCLINATION":51.6377,"RA_OF_ASC_NODE":214.1208,"ARG_OF_PERICENTER":317.9386,"MEAN_ANOMALY":42.0884,"EPHEMERIS_TYPE":0,"CLASSIFICATION_TYPE":"U","NORAD_CAT_ID":55183,"ELEMENT_SET_NO":999,"REV_AT_EPOCH":1731,"BSTAR":0.00087167,"MEAN_MOTION_DOT":0.00092608,"MEAN_MOTION_DDOT":0}]
